GPS BIIF-9  (PRN 26)    
1 40534U 15013A   25123.73223535 -.00000036  00000+0  00000+0 0  9997
2 40534  53.2464 221.1194 0098449  35.1181 325.5529  2.00575970 73618
GPS BIIF-10 (PRN 08)    
1 40730U 15033A   25123.39545981 -.00000035  00000+0  00000+0 0  9990
2 40730  54.3176 283.9498 0104858  24.8945 335.5826  2.00550198 71777
GPS BIIF-11 (PRN 10)    
1 41019U 15062A   25123.44826405 -.00000075  00000+0  00000+0 0  9996
2 41019  56.6655  46.6403 0102846 228.5971 130.5164  2.00566753 69614
GPS BIIF-12 (PRN 32)    
1 41328U 16007A   25123.53209761  .00000037  00000+0  00000+0 0  9996
2 41328  55.2796 105.7192 0087829 242.6169 116.4737  2.00571915 67667
GPS BIII-1  (PRN 04)    
1 43873U 18109A   25123.27012120  .00000038  00000+0  00000+0 0  9991
2 43873  55.4445 108.3735 0033147 197.8774 226.1658  2.00568557 46853
GPS BIII-2  (PRN 18)    
1 44506U 19056A   25123.05797157 -.00000099  00000+0  00000+0 0  9991
2 44506  55.7931 347.4203 0050642 193.1682 338.5465  2.00561561 41848
GPS BIII-3  (PRN 23)    
1 45854U 20041A   25121.13756918 -.00000073  00000+0  00000+0 0  9993
2 45854  56.3825  44.9750 0051920 199.5235 328.9013  2.00567273 35777
GPS BIII-4  (PRN 14)    
1 46826U 20078A   25123.93741153 -.00000039  00000+0  00000+0 0  9990
2 46826  54.0717 227.3810 0058053 200.5895 159.1584  2.00558261 33306
GPS BIII-5  (PRN 11)    
1 48859U 21054A   25123.68650992 -.00000101  00000+0  00000+0 0  9995
2 48859  55.3249 348.8983 0018889 227.9616 140.7336  2.00566561 28548
GPS BIII-6  (PRN 28)    
1 55268U 23009A   25123.70595227  .00000021  00000+0  00000+0 0  9991
2 55268  55.0905 164.5993 0002879 329.3415  91.2560  2.00571723 17033
GPS BIII-7  (PRN 01)    
1 62339U 24242A   25122.76642278 -.00000103  00000+0  00000+0 0  9994
2 62339  54.9814 350.8010 0005332 341.9897 199.8917  2.00557781  3021
