[
    {
        "OBJECT_NAME": "NAVSTAR 73 (USA 260)",
        "OBJECT_ID": "2015-013A",
        "EPOCH": "2025-05-03T17:34:25.134240",
        "MEAN_MOTION": 2.0057597,
        "ECCENTRICITY": 0.0098449,
        "INCLINATION": 53.2464,
        "RA_OF_ASC_NODE": 221.1194,
        "ARG_OF_PERICENTER": 35.1181,
        "MEAN_ANOMALY": 325.5529,
        "EPHEMERIS_TYPE": 0,
        "CLASSIFICATION_TYPE": "U",
        "NORAD_CAT_ID": 40534,
        "ELEMENT_SET_NO": 999,
        "REV_AT_EPOCH": 7361,
        "BSTAR": 0,
        "MEAN_MOTION_DOT": -3.6e-07,
        "MEAN_MOTION_DDOT": 0
    },
    {
        "OBJECT_NAME": "NAVSTAR 74 (USA 262)",
        "OBJECT_ID": "2015-033A",
        "EPOCH": "2025-05-03T09:29:27.727584",
        "MEAN_MOTION": 2.00550198,
        "ECCENTRICITY": 0.0104858,
        "INCLINATION": 54.3176,
        "RA_OF_ASC_NODE": 283.9498,
        "ARG_OF_PERICENTER": 24.8945,
        "MEAN_ANOMALY": 335.5826,
        "EPHEMERIS_TYPE": 0,
        "CLASSIFICATION_TYPE": "U",
        "NORAD_CAT_ID": 40730,
        "ELEMENT_SET_NO": 999,
        "REV_AT_EPOCH": 7177,
        "BSTAR": 0,
        "MEAN_MOTION_DOT": -3.5e-07,
        "MEAN_MOTION_DDOT": 0
    },
    {
        "OBJECT_NAME": "NAVSTAR 75 (USA 265)",
        "OBJECT_ID": "2015-062A",
        "EPOCH": "2025-05-03T10:45:30.013920",
        "MEAN_MOTION": 2.00566753,
        "ECCENTRICITY": 0.0102846,
        "INCLINATION": 56.6655,
        "RA_OF_ASC_NODE": 46.6403,
        "ARG_OF_PERICENTER": 228.5971,
        "MEAN_ANOMALY": 130.5164,
        "EPHEMERIS_TYPE": 0,
        "CLASSIFICATION_TYPE": "U",
        "NORAD_CAT_ID": 41019,
        "ELEMENT_SET_NO": 999,
        "REV_AT_EPOCH": 6961,
        "BSTAR": 0,
        "MEAN_MOTION_DOT": -7.5e-07,
        "MEAN_MOTION_DDOT": 0
    },
    {
        "OBJECT_NAME": "NAVSTAR 76 (USA 266)",
        "OBJECT_ID": "2016-007A",
        "EPOCH": "2025-05-03T12:46:13.233504",
        "MEAN_MOTION": 2.00571915,
        "ECCENTRICITY": 0.0087829,
        "INCLINATION": 55.2796,
        "RA_OF_ASC_NODE": 105.7192,
        "ARG_OF_PERICENTER": 242.6169,
        "MEAN_ANOMALY": 116.4737,
        "EPHEMERIS_TYPE": 0,
        "CLASSIFICATION_TYPE": "U",
        "NORAD_CAT_ID": 41328,
        "ELEMENT_SET_NO": 999,
        "REV_AT_EPOCH": 6766,
        "BSTAR": 0,
        "MEAN_MOTION_DOT": 3.7e-07,
        "MEAN_MOTION_DDOT": 0
    },
    {
        "OBJECT_NAME": "NAVSTAR 77 (USA 289)",
        "OBJECT_ID": "2018-109A",
        "EPOCH": "2025-05-03T06:28:58.471680",
        "MEAN_MOTION": 2.00568557,
        "ECCENTRICITY": 0.0033147,
        "INCLINATION": 55.4445,
        "RA_OF_ASC_NODE": 108.3735,
        "ARG_OF_PERICENTER": 197.8774,
        "MEAN_ANOMALY": 226.1658,
        "EPHEMERIS_TYPE": 0,
        "CLASSIFICATION_TYPE": "U",
        "NORAD_CAT_ID": 43873,
        "ELEMENT_SET_NO": 999,
        "REV_AT_EPOCH": 4685,
        "BSTAR": 0,
        "MEAN_MOTION_DOT": 3.8e-07,
        "MEAN_MOTION_DDOT": 0
    },
    {
        "OBJECT_NAME": "NAVSTAR 78 (USA 293)",
        "OBJECT_ID": "2019-056A",
        "EPOCH": "2025-05-03T01:23:28.743648",
        "MEAN_MOTION": 2.00561561,
        "ECCENTRICITY": 0.0050642,
        "INCLINATION": 55.7931,
        "RA_OF_ASC_NODE": 347.4203,
        "ARG_OF_PERICENTER": 193.1682,
        "MEAN_ANOMALY": 338.5465,
        "EPHEMERIS_TYPE": 0,
        "CLASSIFICATION_TYPE": "U",
        "NORAD_CAT_ID": 44506,
        "ELEMENT_SET_NO": 999,
        "REV_AT_EPOCH": 4184,
        "BSTAR": 0,
        "MEAN_MOTION_DOT": -9.9e-07,
        "MEAN_MOTION_DDOT": 0
    },
    {
        "OBJECT_NAME": "NAVSTAR 79 (USA 304)",
        "OBJECT_ID": "2020-041A",
        "EPOCH": "2025-05-01T03:18:05.977152",
        "MEAN_MOTION": 2.00567273,
        "ECCENTRICITY": 0.005192,
        "INCLINATION": 56.3825,
        "RA_OF_ASC_NODE": 44.975,
        "ARG_OF_PERICENTER": 199.5235,
        "MEAN_ANOMALY": 328.9013,
        "EPHEMERIS_TYPE": 0,
        "CLASSIFICATION_TYPE": "U",
        "NORAD_CAT_ID": 45854,
        "ELEMENT_SET_NO": 999,
        "REV_AT_EPOCH": 3577,
        "BSTAR": 0,
        "MEAN_MOTION_DOT": -7.3e-07,
        "MEAN_MOTION_DDOT": 0
    },
    {
        "OBJECT_NAME": "NAVSTAR 80 (USA 309)",
        "OBJECT_ID": "2020-078A",
        "EPOCH": "2025-05-03T22:29:52.356192",
        "MEAN_MOTION": 2.00558261,
        "ECCENTRICITY": 0.0058053,
        "INCLINATION": 54.0717,
        "RA_OF_ASC_NODE": 227.381,
        "ARG_OF_PERICENTER": 200.5895,
        "MEAN_ANOMALY": 159.1584,
        "EPHEMERIS_TYPE": 0,
        "CLASSIFICATION_TYPE": "U",
        "NORAD_CAT_ID": 46826,
        "ELEMENT_SET_NO": 999,
        "REV_AT_EPOCH": 3330,
        "BSTAR": 0,
        "MEAN_MOTION_DOT": -3.9e-07,
        "MEAN_MOTION_DDOT": 0
    },
    {
        "OBJECT_NAME": "NAVSTAR 81 (USA 319)",
        "OBJECT_ID": "2021-054A",
        "EPOCH": "2025-05-03T16:28:34.457088",
        "MEAN_MOTION": 2.00566561,
        "ECCENTRICITY": 0.0018889,
        "INCLINATION": 55.3249,
        "RA_OF_ASC_NODE": 348.8983,
        "ARG_OF_PERICENTER": 227.9616,
        "MEAN_ANOMALY": 140.7336,
        "EPHEMERIS_TYPE": 0,
        "CLASSIFICATION_TYPE": "U",
        "NORAD_CAT_ID": 48859,
        "ELEMENT_SET_NO": 999,
        "REV_AT_EPOCH": 2854,
        "BSTAR": 0,
        "MEAN_MOTION_DOT": -1.01e-06,
        "MEAN_MOTION_DDOT": 0
    },
    {
        "OBJECT_NAME": "NAVSTAR 82 (USA 343)",
        "OBJECT_ID": "2023-009A",
        "EPOCH": "2025-05-03T16:56:34.276128",
        "MEAN_MOTION": 2.00571723,
        "ECCENTRICITY": 0.0002879,
        "INCLINATION": 55.0905,
        "RA_OF_ASC_NODE": 164.5993,
        "ARG_OF_PERICENTER": 329.3415,
        "MEAN_ANOMALY": 91.256,
        "EPHEMERIS_TYPE": 0,
        "CLASSIFICATION_TYPE": "U",
        "NORAD_CAT_ID": 55268,
        "ELEMENT_SET_NO": 999,
        "REV_AT_EPOCH": 1703,
        "BSTAR": 0,
        "MEAN_MOTION_DOT": 2.1e-07,
        "MEAN_MOTION_DDOT": 0
    },
    {
        "OBJECT_NAME": "NAVSTAR 83 (USA 440)",
        "OBJECT_ID": "2024-242A",
        "EPOCH": "2025-05-02T18:23:38.928192",
        "MEAN_MOTION": 2.00557781,
        "ECCENTRICITY": 0.0005332,
        "INCLINATION": 54.9814,
        "RA_OF_ASC_NODE": 350.801,
        "ARG_OF_PERICENTER": 341.9897,
        "MEAN_ANOMALY": 199.8917,
        "EPHEMERIS_TYPE": 0,
        "CLASSIFICATION_TYPE": "U",
        "NORAD_CAT_ID": 62339,
        "ELEMENT_SET_NO": 999,
        "REV_AT_EPOCH": 302,
        "BSTAR": 0,
        "MEAN_MOTION_DOT": -1.03e-06,
        "MEAN_MOTION_DDOT": 0
    }
]